[{"OBJECT_NAME":"EUCROPIS","OBJECT_ID":"2018-099BB","EPOCH":"2026-03-09T17:11:26.691360","MEAN_MOTION":15.19070978,"ECCENTRICITY":0.00039821,"INCLINATION":97.4349,"RA_OF_ASC_NODE":126.0391,"ARG_OF_PERICENTER":286.1281,"MEAN_ANOMALY":73.9515,"EPHEMERIS_TYPE":0,"CLASSIFICATION_TYPE":"U","NORAD_CAT_ID":43807,"ELEMENT_SET_NO":999,"REV_AT_EPOCH":39735,"BSTAR":0.00041485658,"MEAN_MOTION_DOT":8.636e-5,"MEAN_MOTION_DDOT":0},{"OBJECT_NAME":"STARLINK-1569","OBJECT_ID":"2020-055N","EPOCH":"2026-03-10T00:00:02.999808","MEAN_MOTION":15.18469415,"ECCENTRICITY":0.00021467,"INCLINATION":53.1037,"RA_OF_ASC_NODE":124.869,"ARG_OF_PERICENTER":70.9863,"MEAN_ANOMALY":37.8804,"EPHEMERIS_TYPE":0,"CLASSIFICATION_TYPE":"U","NORAD_CAT_ID":46039,"ELEMENT_SET_NO":999,"REV_AT_EPOCH":579,"BSTAR":0.0056656927,"MEAN_MOTION_DOT":0.00119854,"MEAN_MOTION_DDOT":0}]
